OBJECT_NAME,OBJECT_ID,EPOCH,MEAN_MOTION,ECCENTRICITY,INCLINATION,RA_OF_ASC_NODE,ARG_OF_PERICENTER,MEAN_ANOMALY,EPHEMERIS_TYPE,CLASSIFICATION_TYPE,NORAD_CAT_ID,ELEMENT_SET_NO,REV_AT_EPOCH,BSTAR,MEAN_MOTION_DOT,MEAN_MOTION_DDOT
STAR ONE D2,2021-069A,2026-06-08T07:55:02.533152,1.00333647,.0005608,0.0128,334.6169,102.1905,228.6130,0,U,49055,999,1785,0,0,0
EUTELSAT QUANTUM,2021-069B,2026-06-10T13:31:03.185184,1.00272886,.00022104,0.0122,8.7106,66.3206,74.3634,0,U,49056,999,1786,0,.143E-5,0
ZHONGXING-2E,2021-071A,2026-06-10T14:59:05.138592,1.00272648,.00017111,0.0407,240.4909,244.7019,96.6315,0,U,49062,999,1797,0,-.274E-5,0
TJS-7,2021-077A,2026-06-10T12:49:04.704672,1.00270662,.00022931,0.4904,86.1732,336.2580,289.2684,0,U,49115,999,948,0,-.106E-5,0
CHINASAT 9B,2021-080A,2026-06-10T15:13:23.330784,1.00271886,.00014683,0.0380,97.6481,8.5537,122.5669,0,U,49125,999,1758,0,-.295E-5,0
SHIJIAN-21 (SJ-21),2021-094A,2026-06-10T17:20:54.621024,1.00274107,.0049715,5.0968,61.2164,168.1207,57.9946,0,U,49330,999,529,0,-.332E-5,0
SES-17,2021-095A,2026-06-08T13:03:49.565088,1.00269944,.00010243,0.0256,35.0415,45.9352,304.8147,0,U,49332,999,1776,0,-.256E-5,0
SYRACUSE 4A,2021-095B,2026-06-09T06:42:36.531072,1.00270522,.00014053,0.0174,339.6684,95.7554,328.3909,0,U,49333,999,1786,0,.152E-5,0
QZS-1R (MICHIBIKI-1R),2021-096A,2026-06-09T15:38:55.454208,1.00258277,.07543477,37.4460,79.6965,271.6353,275.8796,0,U,49336,999,1693,0,-.235E-5,0
ZHONGXING-1D,2021-114A,2026-06-10T15:37:03.148896,1.00272685,.00003761,0.0342,240.3939,329.6095,53.4690,0,U,49505,999,1675,0,-.318E-5,0
STPSAT-6,2021-118A,2026-06-08T09:25:46.362144,1.00273463,.00014023,0.2970,85.5058,256.1428,304.8941,0,U,49817,999,1648,0,-.3E-6,0
EXPRESS AMU-7,2021-123A,2026-06-10T15:41:30.897312,1.00272411,.00003209,0.0189,283.3745,49.9750,306.0476,0,U,50001,999,1647,0,-.225E-5,0
EXPRESS AMU-3,2021-123B,2026-06-08T23:58:33.585312,1.00272769,.00006904,0.0188,303.9292,44.6996,11.3801,0,U,50002,999,695,0,-.305E-5,0
TIANLIAN 2-02,2021-124A,2026-06-10T14:08:38.721120,1.00271996,.0001143,0.7832,86.2391,208.7390,347.1118,0,U,50005,999,1655,0,.3E-7,0
TURKSAT 5B,2021-126A,2026-06-08T23:50:55.140000,1.00271431,.00036094,0.0683,338.5411,18.8248,299.7491,0,U,50212,999,1621,0,.162E-5,0
INMARSAT 6-F1,2021-128A,2026-06-08T17:12:08.906400,1.00272678,.00001242,0.0152,289.1871,257.7540,51.9615,0,U,50319,999,1617,0,-.156E-5,0
SHIYAN-12 01 (SY-12 01),2021-129A,2026-06-10T17:01:32.318112,1.00038210,.0003324,3.6568,79.9959,286.3432,213.6354,0,U,50321,999,1643,0,.61E-6,0
SHIYAN-12 02 (SY-12 02),2021-129B,2026-06-10T17:06:39.328416,1.00490982,.0002697,3.6565,80.0021,58.1170,101.4251,0,U,50322,999,1643,0,-.203E-5,0
TJS-9,2021-135A,2026-06-10T14:16:38.679168,1.00270812,.0004585,0.0525,253.9880,155.4028,200.9345,0,U,50574,999,1636,0,-.281E-5,0
USA 324,2022-006A,2026-06-06T02:06:38.886912,1.00289779,.000284,0.7690,83.2777,165.6787,110.1567,0,U,51280,999,1602,0,-.58E-6,0
GOES 18,2022-021A,2026-06-10T00:39:51.369696,1.00271105,.00004729,0.0448,130.4208,17.5522,343.3826,0,U,51850,999,652,0,.114E-5,0
NILESAT 301,2022-061A,2026-06-08T15:03:36.194400,1.00271880,.00054073,0.0573,29.1411,14.7863,71.9873,0,U,52817,999,1465,0,-.42E-6,0
CMS-02 (GSAT-24),2022-067A,2026-06-10T15:21:21.824352,1.00270304,.00016459,0.0420,132.4710,236.9763,202.8910,0,U,52903,999,1454,0,-.147E-5,0
MEASAT 3D,2022-067B,2026-06-10T12:00:53.669088,1.00269699,.000066,0.0404,311.5028,106.5219,112.5513,0,U,52904,999,1458,0,-.224E-5,0
SES-22,2022-071A,2026-06-10T03:57:38.820960,1.00274247,.00010719,0.0204,293.6450,138.2463,107.0815,0,U,52933,999,745,0,.122E-5,0
WFOV (USA 332),2022-073A,2026-06-10T07:00:49.180032,1.00270470,.0002144,3.6922,78.6141,240.6190,163.8869,0,U,52940,999,1430,0,-.346E-5,0
TIANLIAN 2-03,2022-078A,2026-06-10T13:20:26.703168,1.00271729,.00015941,0.6553,76.9117,321.8779,70.8235,0,U,53100,999,1448,0,.89E-6,0
SBIRS GEO-6 (USA 336),2022-092A,2026-06-10T12:14:24.779328,1.00270967,.0001877,3.2699,317.3688,118.5002,145.6177,0,U,53355,999,1416,0,-.276E-5,0
EUTELSAT KONNECT VHTS,2022-110A,2026-06-09T15:03:40.826304,1.00269352,.00026035,0.0647,103.4177,320.1706,63.0435,0,U,53765,999,676,0,.34E-6,0
ZHONGXING-1E,2022-112A,2026-06-10T11:58:01.445376,1.00269950,.00002282,0.0500,104.7234,206.6863,208.3525,0,U,53813,999,1378,0,-.131E-5,0
