STAR ONE D2             
1 49055U 21069A   26159.32989043  .00000000  00000+0  00000+0 0  9990
2 49055   0.0128 334.6169 0005608 102.1905 228.6130  1.00333647 17855
EUTELSAT QUANTUM        
1 49056U 21069B   26161.56323131  .00000143  00000+0  00000+0 0  9998
2 49056   0.0122   8.7106 0002210  66.3206  74.3634  1.00272886 17864
ZHONGXING-2E            
1 49062U 21071A   26161.62436503 -.00000274  00000+0  00000+0 0  9999
2 49062   0.0407 240.4909 0001711 244.7019  96.6315  1.00272648 17973
TJS-7                   
1 49115U 21077A   26161.53408223 -.00000106  00000+0  00000+0 0  9996
2 49115   0.4904  86.1732 0002293 336.2580 289.2684  1.00270662  9483
CHINASAT 9B             
1 49125U 21080A   26161.63429781 -.00000295  00000+0  00000+0 0  9993
2 49125   0.0380  97.6481 0001468   8.5537 122.5669  1.00271886 17581
SHIJIAN-21 (SJ-21)      
1 49330U 21094A   26161.72285441 -.00000332  00000+0  00000+0 0  9991
2 49330   5.0968  61.2164 0049715 168.1207  57.9946  1.00274107  5298
SES-17                  
1 49332U 21095A   26159.54432367 -.00000256  00000+0  00000+0 0  9997
2 49332   0.0256  35.0415 0001024  45.9352 304.8147  1.00269944 17762
SYRACUSE 4A             
1 49333U 21095B   26160.27958948  .00000152  00000+0  00000+0 0  9992
2 49333   0.0174 339.6684 0001405  95.7554 328.3909  1.00270522 17865
QZS-1R (MICHIBIKI-1R)   
1 49336U 21096A   26160.65203072 -.00000235  00000+0  00000+0 0  9992
2 49336  37.4460  79.6965 0754347 271.6353 275.8796  1.00258277 16935
ZHONGXING-1D            
1 49505U 21114A   26161.65073089 -.00000318  00000+0  00000+0 0  9997
2 49505   0.0342 240.3939 0000376 329.6095  53.4690  1.00272685 16751
STPSAT-6                
1 49817U 21118A   26159.39289771 -.00000030  00000+0  00000+0 0  9993
2 49817   0.2970  85.5058 0001402 256.1428 304.8941  1.00273463 16489
EXPRESS AMU-7           
1 50001U 21123A   26161.65382983 -.00000225  00000+0  00000+0 0  9993
2 50001   0.0189 283.3745 0000320  49.9750 306.0476  1.00272411 16479
EXPRESS AMU-3           
1 50002U 21123B   26159.99899983 -.00000305  00000+0  00000+0 0  9990
2 50002   0.0188 303.9292 0000690  44.6996  11.3801  1.00272769  6955
TIANLIAN 2-02           
1 50005U 21124A   26161.58933705  .00000003  00000+0  00000+0 0  9997
2 50005   0.7832  86.2391 0001143 208.7390 347.1118  1.00271996 16556
TURKSAT 5B              
1 50212U 21126A   26159.99369375  .00000162  00000+0  00000+0 0  9993
2 50212   0.0683 338.5411 0003609  18.8248 299.7491  1.00271431 16213
INMARSAT 6-F1           
1 50319U 21128A   26159.71676975 -.00000156  00000+0  00000+0 0  9994
2 50319   0.0152 289.1871 0000124 257.7540  51.9615  1.00272678 16176
SHIYAN-12 01 (SY-12 01) 
1 50321U 21129A   26161.70940183  .00000061  00000+0  00000+0 0  9999
2 50321   3.6568  79.9959 0003324 286.3432 213.6354  1.00038210 16432
SHIYAN-12 02 (SY-12 02) 
1 50322U 21129B   26161.71295519 -.00000203  00000+0  00000+0 0  9996
2 50322   3.6565  80.0021 0002697  58.1170 101.4251  1.00490982 16437
TJS-9                   
1 50574U 21135A   26161.59489212 -.00000281  00000+0  00000+0 0  9999
2 50574   0.0525 253.9880 0004585 155.4028 200.9345  1.00270812 16367
USA 324                 
1 51280U 22006A   26157.08795008 -.00000058  00000+0  00000+0 0  9996
2 51280   0.7690  83.2777 0002840 165.6787 110.1567  1.00289779 16021
GOES 18                 
1 51850U 22021A   26161.02767789  .00000114  00000+0  00000+0 0  9992
2 51850   0.0448 130.4208 0000472  17.5522 343.3826  1.00271105  6529
NILESAT 301             
1 52817U 22061A   26159.62750225 -.00000042  00000+0  00000+0 0  9991
2 52817   0.0573  29.1411 0005407  14.7863  71.9873  1.00271880 14651
CMS-02 (GSAT-24)        
1 52903U 22067A   26161.63983593 -.00000147  00000+0  00000+0 0  9999
2 52903   0.0420 132.4710 0001645 236.9763 202.8910  1.00270304 14540
MEASAT 3D               
1 52904U 22067B   26161.50062117 -.00000224  00000+0  00000+0 0  9992
2 52904   0.0404 311.5028 0000660 106.5219 112.5513  1.00269699 14584
SES-22                  
1 52933U 22071A   26161.16503265  .00000122  00000+0  00000+0 0  9991
2 52933   0.0204 293.6450 0001071 138.2463 107.0815  1.00274247  7450
WFOV (USA 332)          
1 52940U 22073A   26161.29223588 -.00000346  00000+0  00000+0 0  9991
2 52940   3.6922  78.6141 0002144 240.6190 163.8869  1.00270470 14304
TIANLIAN 2-03           
1 53100U 22078A   26161.55586462  .00000089  00000+0  00000+0 0  9990
2 53100   0.6553  76.9117 0001594 321.8779  70.8235  1.00271729 14488
SBIRS GEO-6 (USA 336)   
1 53355U 22092A   26161.51000902 -.00000276  00000+0  00000+0 0  9993
2 53355   3.2699 317.3688 0001877 118.5002 145.6177  1.00270967 14163
EUTELSAT KONNECT VHTS   
1 53765U 22110A   26160.62755586  .00000034  00000+0  00000+0 0  9996
2 53765   0.0647 103.4177 0002603 320.1706  63.0435  1.00269352  6766
ZHONGXING-1E            
1 53813U 22112A   26161.49862784 -.00000131  00000+0  00000+0 0  9996
2 53813   0.0500 104.7234 0000228 206.6863 208.3525  1.00269950 13787
